[{"OBJECT_NAME":"STARLINK-32811","OBJECT_ID":"2025-034L","EPOCH":"2026-03-09T22:37:18.541344","MEAN_MOTION":15.3020159,"ECCENTRICITY":0.00010564,"INCLINATION":53.1573,"RA_OF_ASC_NODE":257.0827,"ARG_OF_PERICENTER":85.8199,"MEAN_ANOMALY":274.2922,"EPHEMERIS_TYPE":0,"CLASSIFICATION_TYPE":"U","NORAD_CAT_ID":63039,"ELEMENT_SET_NO":999,"REV_AT_EPOCH":5912,"BSTAR":0.0012116752,"MEAN_MOTION_DOT":0.00035701,"MEAN_MOTION_DDOT":0},{"OBJECT_NAME":"CZ-4B DEB","OBJECT_ID":"1999-057H","EPOCH":"2026-03-09T17:25:29.363520","MEAN_MOTION":15.25756771,"ECCENTRICITY":0.00339549,"INCLINATION":98.6728,"RA_OF_ASC_NODE":149.1557,"ARG_OF_PERICENTER":175.409,"MEAN_ANOMALY":184.7463,"EPHEMERIS_TYPE":0,"CLASSIFICATION_TYPE":"U","NORAD_CAT_ID":26121,"ELEMENT_SET_NO":999,"REV_AT_EPOCH":41150,"BSTAR":0.00075758105,"MEAN_MOTION_DOT":0.00019602,"MEAN_MOTION_DDOT":0}]
